[{"OBJECT_NAME":"STARLINK-2627","OBJECT_ID":"2021-044BB","EPOCH":"2026-03-09T23:19:18.698016","MEAN_MOTION":15.29341242,"ECCENTRICITY":0.0001376,"INCLINATION":53.1564,"RA_OF_ASC_NODE":63.6251,"ARG_OF_PERICENTER":81.5961,"MEAN_ANOMALY":278.5195,"EPHEMERIS_TYPE":0,"CLASSIFICATION_TYPE":"U","NORAD_CAT_ID":48687,"ELEMENT_SET_NO":999,"REV_AT_EPOCH":26454,"BSTAR":2.6251083e-5,"MEAN_MOTION_DOT":4.01e-6,"MEAN_MOTION_DDOT":0},{"OBJECT_NAME":"YAOGAN-36 04C","OBJECT_ID":"2022-171E","EPOCH":"2026-03-09T18:55:44.889600","MEAN_MOTION":15.29852307,"ECCENTRICITY":0.00066848,"INCLINATION":34.9797,"RA_OF_ASC_NODE":96.6578,"ARG_OF_PERICENTER":275.3761,"MEAN_ANOMALY":84.6192,"EPHEMERIS_TYPE":0,"CLASSIFICATION_TYPE":"U","NORAD_CAT_ID":54750,"ELEMENT_SET_NO":999,"REV_AT_EPOCH":18024,"BSTAR":0.00054591902,"MEAN_MOTION_DOT":0.00016196,"MEAN_MOTION_DDOT":0}]
